{
  "type": "FeatureCollection",
  "features": [
    {
      "type": "Feature",
      "properties": {
        "norad_id": 29268,
        "name": "ARIRANG-2 (KOMPSAT-2)",
        "group": "resource",
        "lat": 71.08997940391836,
        "lon": 30.822587055609848,
        "alt_km": 680.4422659164866,
        "timestamp": "2025-12-25T07:00:33.699106+00:00",
        "meta_object_name": "ARIRANG-2 (KOMPSAT-2)",
        "meta_object_id": "2006-031A",
        "meta_epoch": "2025-12-25T00:29:10.881312",
        "meta_mean_motion": 14.64505165,
        "meta_eccentricity": 0.00131339,
        "meta_inclination": 97.8256,
        "meta_ra_of_asc_node": 186.8946,
        "meta_arg_of_pericenter": 266.9283,
        "meta_mean_anomaly": 208.2764,
        "meta_ephemeris_type": 0,
        "meta_classification_type": "U",
        "meta_norad_cat_id": 29268,
        "meta_element_set_no": 999,
        "meta_rev_at_epoch": 3598,
        "meta_bstar": 0.00013312258,
        "meta_mean_motion_dot": 6.61e-06,
        "meta_mean_motion_ddot": 0,
        "tle_line1": "1 29268U 06031A   25359.02026483  .00000661  00000+0  13312-3 0  9991",
        "tle_line2": "2 29268  97.8256 186.8946 0013133 266.9283 208.2764 14.64505165 35986"
      },
      "geometry": {
        "type": "Point",
        "coordinates": [
          30.822587055609848,
          71.08997940391836
        ]
      }
    },
    {
      "type": "Feature",
      "properties": {
        "norad_id": 29709,
        "name": "LAPAN-TUBSAT",
        "group": "resource",
        "lat": -78.74519218234173,
        "lon": 35.598848375913455,
        "alt_km": 623.2159386681642,
        "timestamp": "2025-12-25T07:00:33.699117+00:00",
        "meta_object_name": "LAPAN-TUBSAT",
        "meta_object_id": "2007-001A",
        "meta_epoch": "2025-12-24T23:17:48.117120",
        "meta_mean_motion": 14.85686851,
        "meta_eccentricity": 0.0013205,
        "meta_inclination": 98.1264,
        "meta_ra_of_asc_node": 349.3787,
        "meta_arg_of_pericenter": 37.7398,
        "meta_mean_anomaly": 322.474,
        "meta_ephemeris_type": 0,
        "meta_classification_type": "U",
        "meta_norad_cat_id": 29709,
        "meta_element_set_no": 999,
        "meta_rev_at_epoch": 2528,
        "meta_bstar": 1.9837174e-05,
        "meta_mean_motion_dot": 1.15e-06,
        "meta_mean_motion_ddot": 0,
        "tle_line1": "1 29709U 07001A   25358.97069580  .00000115  00000+0  19837-4 0  9990",
        "tle_line2": "2 29709  98.1264 349.3787 0013205  37.7398 322.4740 14.85686851 25289"
      },
      "geometry": {
        "type": "Point",
        "coordinates": [
          35.598848375913455,
          -78.74519218234173
        ]
      }
    },
    {
      "type": "Feature",
      "properties": {
        "norad_id": 31113,
        "name": "HAIYANG-1B",
        "group": "resource",
        "lat": -34.02666910802509,
        "lon": 157.37315992722947,
        "alt_km": 802.9039779814921,
        "timestamp": "2025-12-25T07:00:33.699141+00:00",
        "meta_object_name": "HAIYANG-1B",
        "meta_object_id": "2007-010A",
        "meta_epoch": "2025-12-24T19:56:29.461920",
        "meta_mean_motion": 14.30968874,
        "meta_eccentricity": 0.00136155,
        "meta_inclination": 98.3329,
        "meta_ra_of_asc_node": 342.6102,
        "meta_arg_of_pericenter": 3.3672,
        "meta_mean_anomaly": 356.7601,
        "meta_ephemeris_type": 0,
        "meta_classification_type": "U",
        "meta_norad_cat_id": 31113,
        "meta_element_set_no": 999,
        "meta_rev_at_epoch": 97569,
        "meta_bstar": 5.8199808e-05,
        "meta_mean_motion_dot": 1.12e-06,
        "meta_mean_motion_ddot": 0,
        "tle_line1": "1 31113U 07010A   25358.83089655  .00000112  00000+0  58200-4 0  9996",
        "tle_line2": "2 31113  98.3329 342.6102 0013615   3.3672 356.7601 14.30968874975694"
      },
      "geometry": {
        "type": "Point",
        "coordinates": [
          157.37315992722947,
          -34.02666910802509
        ]
      }
    },
    {
      "type": "Feature",
      "properties": {
        "norad_id": 31598,
        "name": "COSMO-SKYMED 1",
        "group": "resource",
        "lat": -28.856389275382178,
        "lon": -170.84652613124686,
        "alt_km": 585.874097765387,
        "timestamp": "2025-12-25T07:00:33.699154+00:00",
        "meta_object_name": "COSMO-SKYMED 1",
        "meta_object_id": "2007-023A",
        "meta_epoch": "2025-12-24T23:06:44.336160",
        "meta_mean_motion": 14.95854744,
        "meta_eccentricity": 0.00012706,
        "meta_inclination": 97.884,
        "meta_ra_of_asc_node": 184.4431,
        "meta_arg_of_pericenter": 77.8689,
        "meta_mean_anomaly": 282.2674,
        "meta_ephemeris_type": 0,
        "meta_classification_type": "U",
        "meta_norad_cat_id": 31598,
        "meta_element_set_no": 999,
        "meta_rev_at_epoch": 373,
        "meta_bstar": 0.00030130988,
        "meta_mean_motion_dot": 3.308e-05,
        "meta_mean_motion_ddot": 0,
        "tle_line1": "1 31598U 07023A   25358.96301315  .00003308  00000+0  30131-3 0  9993",
        "tle_line2": "2 31598  97.8840 184.4431 0001270  77.8689 282.2674 14.95854744  3739"
      },
      "geometry": {
        "type": "Point",
        "coordinates": [
          -170.84652613124686,
          -28.856389275382178
        ]
      }
    },
    {
      "type": "Feature",
      "properties": {
        "norad_id": 31698,
        "name": "TERRASAR-X",
        "group": "resource",
        "lat": -40.22107838877461,
        "lon": 10.837699961597416,
        "alt_km": 515.5766070236641,
        "timestamp": "2025-12-25T07:00:33.699166+00:00",
        "meta_object_name": "TERRASAR-X",
        "meta_object_id": "2007-026A",
        "meta_epoch": "2025-12-24T13:47:55.330080",
        "meta_mean_motion": 15.19151427,
        "meta_eccentricity": 0.00018153,
        "meta_inclination": 97.4444,
        "meta_ra_of_asc_node": 3.7823,
        "meta_arg_of_pericenter": 79.9991,
        "meta_mean_anomaly": 280.1449,
        "meta_ephemeris_type": 0,
        "meta_classification_type": "U",
        "meta_norad_cat_id": 31698,
        "meta_element_set_no": 999,
        "meta_rev_at_epoch": 2671,
        "meta_bstar": 4.8169766e-05,
        "meta_mean_motion_dot": 9.45e-06,
        "meta_mean_motion_ddot": 0,
        "tle_line1": "1 31698U 07026A   25358.57494595  .00000945  00000+0  48170-4 0  9994",
        "tle_line2": "2 31698  97.4444   3.7823 0001815  79.9991 280.1449 15.19151427 26713"
      },
      "geometry": {
        "type": "Point",
        "coordinates": [
          10.837699961597416,
          -40.22107838877461
        ]
      }
    },
    {
      "type": "Feature",
      "properties": {
        "norad_id": 32060,
        "name": "WORLDVIEW-1 (WV-1)",
        "group": "resource",
        "lat": -16.530671060261998,
        "lon": -65.61622261855896,
        "alt_km": 500.9087628448797,
        "timestamp": "2025-12-25T07:00:33.699177+00:00",
        "meta_object_name": "WORLDVIEW-1 (WV-1)",
        "meta_object_id": "2007-041A",
        "meta_epoch": "2025-12-24T20:41:39.444576",
        "meta_mean_motion": 15.23951668,
        "meta_eccentricity": 0.0003186,
        "meta_inclination": 97.3827,
        "meta_ra_of_asc_node": 116.1661,
        "meta_arg_of_pericenter": 355.9868,
        "meta_mean_anomaly": 4.1343,
        "meta_ephemeris_type": 0,
        "meta_classification_type": "U",
        "meta_norad_cat_id": 32060,
        "meta_element_set_no": 999,
        "meta_rev_at_epoch": 1632,
        "meta_bstar": 0.00035991199,
        "meta_mean_motion_dot": 8.638e-05,
        "meta_mean_motion_ddot": 0,
        "tle_line1": "1 32060U 07041A   25358.86226209  .00008638  00000+0  35991-3 0  9995",
        "tle_line2": "2 32060  97.3827 116.1661 0003186 355.9868   4.1343 15.23951668 16326"
      },
      "geometry": {
        "type": "Point",
        "coordinates": [
          -65.61622261855896,
          -16.530671060261998
        ]
      }
    },
    {
      "type": "Feature",
      "properties": {
        "norad_id": 32289,
        "name": "YAOGAN-3",
        "group": "resource",
        "lat": -81.62769246694687,
        "lon": 95.13968359949511,
        "alt_km": 606.4530236843948,
        "timestamp": "2025-12-25T07:00:33.699189+00:00",
        "meta_object_name": "YAOGAN-3",
        "meta_object_id": "2007-055A",
        "meta_epoch": "2025-12-24T23:20:26.140128",
        "meta_mean_motion": 14.89915143,
        "meta_eccentricity": 0.00013013,
        "meta_inclination": 97.8354,
        "meta_ra_of_asc_node": 25.4861,
        "meta_arg_of_pericenter": 85.869,
        "meta_mean_anomaly": 274.2676,
        "meta_ephemeris_type": 0,
        "meta_classification_type": "U",
        "meta_norad_cat_id": 32289,
        "meta_element_set_no": 999,
        "meta_rev_at_epoch": 97991,
        "meta_bstar": 0.00019314377,
        "meta_mean_motion_dot": 1.803e-05,
        "meta_mean_motion_ddot": 0,
        "tle_line1": "1 32289U 07055A   25358.97252477  .00001803  00000+0  19314-3 0  9999",
        "tle_line2": "2 32289  97.8354  25.4861 0001301  85.8690 274.2676 14.89915143979913"
      },
      "geometry": {
        "type": "Point",
        "coordinates": [
          95.13968359949511,
          -81.62769246694687
        ]
      }
    }
  ]
}